NORAD_CAT_ID,OBJECT_NAME,OBJECT_TYPE,EPOCH,MEAN_MOTION,ECCENTRICITY,INCLINATION,RA_OF_ASC_NODE,ARG_OF_PERICENTER,MEAN_ANOMALY,BSTAR,MEAN_MOTION_DOT,MEAN_MOTION_DDOT,TLE_LINE0,TLE_LINE1,TLE_LINE2,SEMIMAJOR_AXIS,PERIOD,APOGEE,PERIGEE,DECAYED
53412.0,STARLINK-4496,PAYLOAD,2023-08-27 10:58:27,15.08848567,0.0001237,53.2185,307.6545,91.1994,268.914,0.00010738,1.422e-05,0.0,0 STARLINK-4496,1 53412U 22097AA  23239.45726129  .00001422  00000-0  10738-3 0  9991,2 53412  53.2185 307.6545 0001237  91.1994 268.9140 15.08848567 58978,6917.854,95.437,540.575,538.863,0.0
53412.0,STARLINK-4496,PAYLOAD,2023-08-28 10:49:14,15.08838927,0.0001319,53.2181,303.194,88.7364,271.3779,7.7647e-05,9.48e-06,0.0,0 STARLINK-4496,1 53412U 22097AA  23240.45086791  .00000948  00000-0  77647-4 0  9992,2 53412  53.2181 303.1940 0001319  88.7364 271.3779 15.08838927 58636,6917.884,95.438,540.661,538.836,0.0
53412.0,STARLINK-4496,PAYLOAD,2023-08-29 10:40:01,15.08844662,0.00013,53.2173,298.7331,89.112,271.0021,5.8803e-05,6.48e-06,0.0,0 STARLINK-4496,1 53412U 22097AA  23241.44446340  .00000648  00000-0  58803-4 0  9992,2 53412  53.2173 298.7331 0001300  89.1120 271.0021 15.08844662 59276,6917.866,95.437,540.63,538.832,0.0
53412.0,STARLINK-4496,PAYLOAD,2023-08-30 02:33:53,15.08835736,0.000132,53.2174,295.7594,89.4869,270.6274,4.7445e-05,4.67e-06,0.0,0 STARLINK-4496,1 53412U 22097AA  23242.10686954  .00000467  00000-0  47445-4 0  9992,2 53412  53.2174 295.7594 0001320  89.4869 270.6274 15.08835736 58883,6917.893,95.438,540.672,538.845,0.0
53412.0,STARLINK-4496,PAYLOAD,2023-08-30 20:03:07,15.08838732,0.0001274,53.2172,292.4884,93.6321,266.4817,4.7305e-05,4.65e-06,0.0,0 STARLINK-4496,1 53412U 22097AA  23242.83550874  .00000465  00000-0  47305-4 0  9996,2 53412  53.2172 292.4884 0001274  93.6321 266.4817 15.08838732 59487,6917.884,95.438,540.631,538.868,0.0
53412.0,STARLINK-4496,PAYLOAD,2023-08-31 02:24:40,15.08844034,0.0001419,53.218,291.301,89.6422,270.4733,8.9682e-05,1.14e-05,0.0,0 STARLINK-4496,1 53412U 22097AA  23243.10046520  .00001140  00000-0  89682-4 0  9990,2 53412  53.2180 291.3010 0001419  89.6422 270.4733 15.08844034 59038,6917.868,95.437,540.715,538.751,0.0
53412.0,STARLINK-4496,PAYLOAD,2023-09-01 11:47:46,15.08837439,0.0001169,53.2181,285.0558,89.1255,270.9871,0.00019541,2.823e-05,0.0,0 STARLINK-4496,1 53412U 22097AA  23244.49151179  .00002823  00000-0  19541-3 0  9995,2 53412  53.2181 285.0558 0001169  89.1255 270.9871 15.08837439 59249,6917.888,95.438,540.562,538.945,0.0
53412.0,STARLINK-4496,PAYLOAD,2023-09-01 19:44:42,15.08818216,0.0001656,53.2168,283.5689,103.1007,257.017,0.00040608,6.177e-05,0.0,0 STARLINK-4496,1 53412U 22097AA  23244.82271890  .00006177  00000-0  40608-3 0  9999,2 53412  53.2168 283.5689 0001656 103.1007 257.0170 15.08818216 59290,6917.947,95.439,540.958,538.666,0.0
53412.0,STARLINK-4496,PAYLOAD,2023-09-02 02:06:14,15.08842382,0.0001412,53.2184,282.3781,87.4902,272.6251,6.0464e-05,6.75e-06,0.0,0 STARLINK-4496,1 53412U 22097AA  23245.08767187  .00000675  00000-0  60464-4 0  9997,2 53412  53.2184 282.3781 0001412  87.4902 272.6251 15.08842382 59335,6917.873,95.437,540.715,538.761,0.0
53412.0,STARLINK-4496,PAYLOAD,2023-09-02 19:35:29,15.08844808,0.0001408,53.2177,279.1068,86.8914,273.2239,6.8462e-05,8.02e-06,0.0,0 STARLINK-4496,1 53412U 22097AA  23245.81630943  .00000802  00000-0  68462-4 0  9995,2 53412  53.2177 279.1068 0001408  86.8914 273.2239 15.08844808 59934,6917.866,95.437,540.705,538.757,0.0
53412.0,STARLINK-4496,PAYLOAD,2023-09-03 08:18:34,15.08843701,0.0001437,53.2173,276.7279,87.2881,272.8275,5.4835e-05,5.85e-06,0.0,0 STARLINK-4496,1 53412U 22097AA  23246.34622980  .00000585  00000-0  54835-4 0  9993,2 53412  53.2173 276.7279 0001437  87.2881 272.8275 15.08843701 59528,6917.869,95.437,540.728,538.74,0.0
53412.0,STARLINK-4496,PAYLOAD,2023-09-04 01:47:49,15.0883513,0.0001513,53.217,273.4568,85.4359,274.6806,-7.2177e-06,-4.03e-06,0.0,0 STARLINK-4496,1 53412U 22097AA  23247.07487729 -.00000403  00000-0 -72177-5 0  9995,2 53412  53.2170 273.4568 0001513  85.4359 274.6806 15.08835130 59634,6917.895,95.438,540.807,538.714,0.0
53412.0,STARLINK-4496,PAYLOAD,2023-09-04 08:09:22,15.08828075,0.0001378,53.2154,272.2659,89.7151,270.3999,2.0791e-05,4.3e-07,0.0,0 STARLINK-4496,1 53412U 22097AA  23247.33984202  .00000043  00000-0  20791-4 0  9994,2 53412  53.2154 272.2659 0001378  89.7151 270.3999 15.08828075 60166,6917.917,95.438,540.735,538.829,0.0
53412.0,STARLINK-4496,PAYLOAD,2023-09-05 12:46:17,15.08844802,0.0001428,53.2165,266.9133,90.277,269.8386,7.1705e-05,8.54e-06,0.0,0 STARLINK-4496,1 53412U 22097AA  23248.53215082  .00000854  00000-0  71705-4 0  9991,2 53412  53.2165 266.9133 0001428  90.2770 269.8386 15.08844802 60344,6917.866,95.437,540.719,538.743,0.0
53412.0,STARLINK-4496,PAYLOAD,2023-09-06 01:29:23,15.08835187,0.0001437,53.2159,264.5346,83.6812,276.4344,0.00011429,1.531e-05,0.0,0 STARLINK-4496,1 53412U 22097AA  23249.06207622  .00001531  00000-0  11429-3 0  9990,2 53412  53.2159 264.5346 0001437  83.6812 276.4344 15.08835187 59937,6917.895,95.438,540.754,538.766,0.0
53412.0,STARLINK-4496,PAYLOAD,2023-09-06 12:37:05,15.0884265,0.0001696,53.2173,262.4532,75.0753,285.0427,0.00012726,1.738e-05,0.0,0 STARLINK-4496,1 53412U 22097AA  23249.52575285  .00001738  00000-0  12726-3 0  9994,2 53412  53.2173 262.4532 0001696  75.0753 285.0427 15.08842650 60497,6917.872,95.437,540.911,538.564,0.0
53412.0,STARLINK-4496,PAYLOAD,2023-09-07 06:06:20,15.08837669,0.0001522,53.2161,259.1819,90.4147,269.7019,-3.0445e-06,-3.36e-06,0.0,0 STARLINK-4496,1 53412U 22097AA  23250.25439928 -.00000336  00000-0 -30445-5 0  9994,2 53412  53.2161 259.1819 0001522  90.4147 269.7019 15.08837669 60110,6917.888,95.438,540.805,538.7,0.0
53412.0,STARLINK-4496,PAYLOAD,2023-09-07 12:27:52,15.08842321,0.0001473,53.2163,257.9922,88.7044,271.4117,1.9458e-05,2.2e-07,0.0,0 STARLINK-4496,1 53412U 22097AA  23250.51935539  .00000022  00000-0  19458-4 0  9992,2 53412  53.2163 257.9922 0001473  88.7044 271.4117 15.08842321 60642,6917.873,95.437,540.757,538.719,0.0
53412.0,STARLINK-4496,PAYLOAD,2023-09-08 10:43:15,15.08876253,0.0001612,53.2168,253.8289,98.6638,261.4536,-0.00044441,-7.361e-05,0.0,0 STARLINK-4496,1 53412U 22097AA  23251.44670482 -.00007361  00000-0 -44441-3 0  9992,2 53412  53.2168 253.8289 0001612  98.6638 261.4536 15.08876253 60782,6917.77,95.435,540.75,538.519,0.0
53412.0,STARLINK-4496,PAYLOAD,2023-09-08 17:04:49,15.08830521,0.0001271,53.2171,252.6392,94.2973,265.8165,8.9431e-05,1.135e-05,0.0,0 STARLINK-4496,1 53412U 22097AA  23251.71168135  .00001135  00000-0  89431-4 0  9999,2 53412  53.2171 252.6392 0001271  94.2973 265.8165 15.08830521 60338,6917.909,95.438,540.654,538.895,0.0
53412.0,STARLINK-4496,PAYLOAD,2023-09-09 08:58:40,15.08838111,0.0001489,53.217,249.6661,90.7232,269.3931,4.7697e-05,4.71e-06,0.0,0 STARLINK-4496,1 53412U 22097AA  23252.37408138  .00000471  00000-0  47697-4 0  9992,2 53412  53.2170 249.6661 0001489  90.7232 269.3931 15.08838111 60920,6917.886,95.438,540.781,538.721,0.0
53412.0,STARLINK-4496,PAYLOAD,2023-09-10 00:52:31,15.08840067,0.0001444,53.2167,246.6926,91.7407,268.3751,0.00010535,1.389e-05,0.0,0 STARLINK-4496,1 53412U 22097AA  23253.03648004  .00001389  00000-0  10535-3 0  9993,2 53412  53.2167 246.6926 0001444  91.7407 268.3751 15.08840067 60532,6917.88,95.438,540.744,538.746,0.0
53412.0,STARLINK-4496,PAYLOAD,2023-09-10 07:14:04,15.08846171,0.0001447,53.2168,245.5034,91.6248,268.491,9.2153e-05,1.179e-05,0.0,0 STARLINK-4496,1 53412U 22097AA  23253.30143661  .00001179  00000-0  92153-4 0  9996,2 53412  53.2168 245.5034 0001447  91.6248 268.4910 15.08846171 61065,6917.862,95.437,540.728,538.726,0.0
53412.0,STARLINK-4496,PAYLOAD,2023-09-10 16:46:23,15.0883727,0.0001449,53.2166,243.7183,92.3466,267.7692,3.4355e-05,2.59e-06,0.0,0 STARLINK-4496,1 53412U 22097AA  23253.69888401  .00000259  00000-0  34355-4 0  9994,2 53412  53.2166 243.7183 0001449  92.3466 267.7692 15.08837270 60631,6917.889,95.438,540.756,538.751,0.0
53412.0,STARLINK-4496,PAYLOAD,2023-09-11 05:29:28,15.08834287,0.0001433,53.2164,241.3394,88.8665,271.2492,6.0706e-05,6.78e-06,0.0,0 STARLINK-4496,1 53412U 22097AA  23254.22880725  .00000678  00000-0  60706-4 0  9999,2 53412  53.2164 241.3394 0001433  88.8665 271.2492 15.08834287 61208,6917.898,95.438,540.754,538.772,0.0
53412.0,STARLINK-4496,PAYLOAD,2023-09-11 22:58:42,15.08845036,0.0001459,53.2167,238.0681,89.0108,271.1052,6.0321e-05,6.72e-06,0.0,0 STARLINK-4496,1 53412U 22097AA  23254.95744078  .00000672  00000-0  60321-4 0  9996,2 53412  53.2167 238.0681 0001459  89.0108 271.1052 15.08845036 60828,6917.865,95.437,540.739,538.721,0.0
53412.0,STARLINK-4496,PAYLOAD,2023-09-12 08:31:01,15.0885235,0.0001425,53.2162,236.284,89.5573,270.5582,0.00010449,1.376e-05,0.0,0 STARLINK-4496,1 53412U 22097AA  23255.35487340  .00001376  00000-0  10449-3 0  9994,2 53412  53.2162 236.2840 0001425  89.5573 270.5582 15.08852350 60888,6917.843,95.437,540.693,538.722,0.0
53412.0,STARLINK-4496,PAYLOAD,2023-09-12 16:27:57,15.08839602,0.0001402,53.2161,234.797,93.823,266.2923,0.00020544,2.983e-05,0.0,0 STARLINK-4496,1 53412U 22097AA  23255.68607925  .00002983  00000-0  20544-3 0  9995,2 53412  53.2161 234.7970 0001402  93.8230 266.2923 15.08839602 61424,6917.882,95.438,540.716,538.777,0.0
53412.0,STARLINK-4496,PAYLOAD,2023-09-13 02:00:16,15.08837962,0.0001427,53.2161,233.0132,89.6571,270.4584,8.8512e-05,1.121e-05,0.0,0 STARLINK-4496,1 53412U 22097AA  23256.08352257  .00001121  00000-0  88512-4 0  9998,2 53412  53.2161 233.0132 0001427  89.6571 270.4584 15.08837962 60992,6917.887,95.438,540.739,538.764,0.0
53412.0,STARLINK-4496,PAYLOAD,2023-09-13 08:21:48,15.0884702,0.0001693,53.2184,231.8214,103.0895,257.0287,0.00013245,1.821e-05,0.0,0 STARLINK-4496,1 53412U 22097AA  23256.34847531  .00001821  00000-0  13245-3 0  9998,2 53412  53.2184 231.8214 0001693 103.0895 257.0287 15.08847020 61032,6917.859,95.437,540.895,538.553,0.0
